[{"OBJECT_NAME":"ONEWEB-0382","OBJECT_ID":"2021-090AF","EPOCH":"2026-03-09T16:14:53.732256","MEAN_MOTION":13.20770887,"ECCENTRICITY":0.00012907,"INCLINATION":87.917,"RA_OF_ASC_NODE":294.3046,"ARG_OF_PERICENTER":79.0697,"MEAN_ANOMALY":281.0581,"EPHEMERIS_TYPE":0,"CLASSIFICATION_TYPE":"U","NORAD_CAT_ID":49308,"ELEMENT_SET_NO":999,"REV_AT_EPOCH":21668,"BSTAR":-0.00060889499,"MEAN_MOTION_DOT":-2.35e-6,"MEAN_MOTION_DDOT":0},{"OBJECT_NAME":"SL-14 DEB","OBJECT_ID":"1991-056AG","EPOCH":"2026-03-09T08:58:38.570592","MEAN_MOTION":13.21407113,"ECCENTRICITY":0.00056439,"INCLINATION":82.5684,"RA_OF_ASC_NODE":207.0766,"ARG_OF_PERICENTER":309.9446,"MEAN_ANOMALY":50.1183,"EPHEMERIS_TYPE":0,"CLASSIFICATION_TYPE":"U","NORAD_CAT_ID":45294,"ELEMENT_SET_NO":999,"REV_AT_EPOCH":29058,"BSTAR":0.0026423776,"MEAN_MOTION_DOT":1.097e-5,"MEAN_MOTION_DDOT":0}]
